IRIDIUM 136             
1 42962U 17061H   24280.40678919 -.00000025  00000+0 -16075-4 0  9999
2 42962  86.3908 283.8197 0001947  92.6886 267.4532 14.34216478366146
